{
    "links": {
        "self": "http://www.neowsapp.com/rest/v1/neo/3752080?api_key=iIulBulltgU6a56xZRHN4H3l9WmuAYTsLGpBGhQ2"
    },
    "id": "3752080",
    "neo_reference_id": "3752080",
    "name": "(2016 HB)",
    "designation": "2016 HB",
    "nasa_jpl_url": "http://ssd.jpl.nasa.gov/sbdb.cgi?sstr=3752080",
    "absolute_magnitude_h": 24.4,
    "estimated_diameter": {
        "kilometers": {
            "estimated_diameter_min": 0.0350392641,
            "estimated_diameter_max": 0.0783501764
        },
        "meters": {
            "estimated_diameter_min": 35.0392641108,
            "estimated_diameter_max": 78.3501764334
        },
        "miles": {
            "estimated_diameter_min": 0.0217723826,
            "estimated_diameter_max": 0.0486845275
        },
        "feet": {
            "estimated_diameter_min": 114.9582192654,
            "estimated_diameter_max": 257.0543928497
        }
    },
    "is_potentially_hazardous_asteroid": false,
    "close_approach_data": [
        {
            "close_approach_date": "1955-01-15",
            "close_approach_date_full": "1955-Jan-15 00:59",
            "epoch_date_close_approach": -472172460000,
            "relative_velocity": {
                "kilometers_per_second": "17.6443531727",
                "kilometers_per_hour": "63519.6714218392",
                "miles_per_hour": "39468.6536120867"
            },
            "miss_distance": {
                "astronomical": "0.345179061",
                "lunar": "134.274654729",
                "kilometers": "51638052.29420007",
                "miles": "32086397.829578166"
            },
            "orbiting_body": "Earth"
        },
        {
            "close_approach_date": "1998-01-11",
            "close_approach_date_full": "1998-Jan-11 20:31",
            "epoch_date_close_approach": 884550660000,
            "relative_velocity": {
                "kilometers_per_second": "19.3802330693",
                "kilometers_per_hour": "69768.839049475",
                "miles_per_hour": "43351.643352714"
            },
            "miss_distance": {
                "astronomical": "0.4010619932",
                "lunar": "156.0131153548",
                "kilometers": "59998019.920674484",
                "miles": "37281040.8338725192"
            },
            "orbiting_body": "Earth"
        },
        {
            "close_approach_date": "2016-04-12",
            "close_approach_date_full": "2016-Apr-12 11:17",
            "epoch_date_close_approach": 1460459820000,
            "relative_velocity": {
                "kilometers_per_second": "7.9172564774",
                "kilometers_per_hour": "28502.1233184752",
                "miles_per_hour": "17710.1110141936"
            },
            "miss_distance": {
                "astronomical": "0.0271600578",
                "lunar": "10.5652624842",
                "kilometers": "4063086.795956886",
                "miles": "2524685.0638055868"
            },
            "orbiting_body": "Earth"
        },
        {
            "close_approach_date": "2025-05-21",
            "close_approach_date_full": "2025-May-21 08:29",
            "epoch_date_close_approach": 1747816140000,
            "relative_velocity": {
                "kilometers_per_second": "21.2344741308",
                "kilometers_per_hour": "76444.1068708555",
                "miles_per_hour": "47499.3951831713"
            },
            "miss_distance": {
                "astronomical": "0.4665890904",
                "lunar": "181.5031561656",
                "kilometers": "69800734.089077448",
                "miles": "43372164.9689388624"
            },
            "orbiting_body": "Earth"
        },
        {
            "close_approach_date": "2066-01-10",
            "close_approach_date_full": "2066-Jan-10 12:22",
            "epoch_date_close_approach": 3030351720000,
            "relative_velocity": {
                "kilometers_per_second": "20.863694382",
                "kilometers_per_hour": "75109.2997751107",
                "miles_per_hour": "46669.9979630403"
            },
            "miss_distance": {
                "astronomical": "0.4519126834",
                "lunar": "175.7940338426",
                "kilometers": "67605174.862624358",
                "miles": "42007907.7270698204"
            },
            "orbiting_body": "Earth"
        }
    ],
    "orbital_data": {
        "orbit_id": "12",
        "orbit_determination_date": "2017-04-06 08:26:26",
        "first_observation_date": "2016-04-17",
        "last_observation_date": "2016-05-06",
        "data_arc_in_days": 19,
        "observations_used": 97,
        "orbit_uncertainty": "7",
        "minimum_orbit_intersection": ".0121142",
        "jupiter_tisserand_invariant": "4.046",
        "epoch_osculation": "2459000.5",
        "eccentricity": ".4388652378459598",
        "semi_major_axis": "1.726491320577512",
        "inclination": "4.015846999573371",
        "ascending_node_longitude": "186.4797349549667",
        "orbital_period": "828.6001850956065",
        "perihelion_distance": ".9687942965332769",
        "perihelion_argument": "344.8943927824567",
        "aphelion_distance": "2.484188344621746",
        "perihelion_time": "2459122.864421124348",
        "mean_anomaly": "306.8366138493169",
        "mean_motion": ".4344676799202767",
        "equinox": "J2000",
        "orbit_class": {
            "orbit_class_type": "APO",
            "orbit_class_description": "Near-Earth asteroid orbits which cross the Earth’s orbit similar to that of 1862 Apollo",
            "orbit_class_range": "a (semi-major axis) > 1.0 AU; q (perihelion) < 1.017 AU"
        }
    },
    "is_sentry_object": false
}